[{"OBJECT_NAME":"STARLINK-3853","OBJECT_ID":"2022-045AE","EPOCH":"2026-03-09T16:17:32.464608","MEAN_MOTION":15.08834782,"ECCENTRICITY":0.0001184,"INCLINATION":53.2176,"RA_OF_ASC_NODE":199.1814,"ARG_OF_PERICENTER":88.6312,"MEAN_ANOMALY":271.4816,"EPHEMERIS_TYPE":0,"CLASSIFICATION_TYPE":"U","NORAD_CAT_ID":52359,"ELEMENT_SET_NO":999,"REV_AT_EPOCH":21578,"BSTAR":5.0358138e-5,"MEAN_MOTION_DOT":5.14e-6,"MEAN_MOTION_DDOT":0},{"OBJECT_NAME":"OBJECT M","OBJECT_ID":"2017-042M","EPOCH":"2026-03-09T22:38:39.337440","MEAN_MOTION":15.07991931,"ECCENTRICITY":0.0005117,"INCLINATION":97.4139,"RA_OF_ASC_NODE":234.2602,"ARG_OF_PERICENTER":83.1417,"MEAN_ANOMALY":277.0393,"EPHEMERIS_TYPE":0,"CLASSIFICATION_TYPE":"U","NORAD_CAT_ID":42836,"ELEMENT_SET_NO":999,"REV_AT_EPOCH":47205,"BSTAR":0.00047182615,"MEAN_MOTION_DOT":7.201e-5,"MEAN_MOTION_DDOT":0}]
